[{"OBJECT_NAME":"STARLINK-6274","OBJECT_ID":"2023-078K","EPOCH":"2026-03-09T22:06:02.226240","MEAN_MOTION":14.98332298,"ECCENTRICITY":0.00025794,"INCLINATION":70.0011,"RA_OF_ASC_NODE":324.0592,"ARG_OF_PERICENTER":244.8303,"MEAN_ANOMALY":115.2588,"EPHEMERIS_TYPE":0,"CLASSIFICATION_TYPE":"U","NORAD_CAT_ID":56776,"ELEMENT_SET_NO":999,"REV_AT_EPOCH":15320,"BSTAR":-6.8274288e-5,"MEAN_MOTION_DOT":-9.07e-6,"MEAN_MOTION_DDOT":0},{"OBJECT_NAME":"HYPSO-2","OBJECT_ID":"2024-149BR","EPOCH":"2026-03-09T15:24:17.277696","MEAN_MOTION":14.98259029,"ECCENTRICITY":0.00013898,"INCLINATION":97.6894,"RA_OF_ASC_NODE":146.3679,"ARG_OF_PERICENTER":74.8032,"MEAN_ANOMALY":285.3344,"EPHEMERIS_TYPE":0,"CLASSIFICATION_TYPE":"U","NORAD_CAT_ID":60531,"ELEMENT_SET_NO":999,"REV_AT_EPOCH":8514,"BSTAR":0.00033979817,"MEAN_MOTION_DOT":3.981e-5,"MEAN_MOTION_DDOT":0}]
